{
"type": "FeatureCollection",
"name": "Vijayawada_AOI",
"crs": { "type": "name", "properties": { "name": "urn:ogc:def:crs:OGC:1.3:CRS84" } },
"features": [
{ "type": "Feature", "properties": { "id": 1 }, "geometry": { "type": "MultiPolygon", "coordinates": [ [ [ [ 80.502444367969233, 17.021321806264766 ], [ 80.495030023552388, 16.821134507010086 ], [ 80.791603800225985, 16.803128241997761 ], [ 80.811728449357403, 17.023440190383862 ], [ 80.811728449357403, 17.023440190383862 ], [ 80.502444367969233, 17.021321806264766 ] ] ] ] } }
]
}
